STARLINK-1470           
1 45772U 20038AU  26068.60892913  .00054678  00000+0  19687-2 0  9990
2 45772  53.0480 174.6971 0002444  12.8687 347.2373 15.28074860317065
STARLINK-2535           
1 48295U 21036V   26068.27564317 -.00000403  00000+0 -14738-5 0  9993
2 48295  53.1607  77.4642 0001518  97.2274 262.8900 15.30191983268348
